CCSDS_OMM_VERS = 2.0
CREATION_DATE  = 
ORIGINATOR     = 

OBJECT_NAME    = STARLINK-36636
OBJECT_ID      = 2026-018Y
CENTER_NAME    = EARTH
REF_FRAME      = TEME
TIME_SYSTEM    = UTC
MEAN_ELEMENT_THEORY = SGP/SGP4

EPOCH          = 2026-02-22T22:00:01.999584
MEAN_MOTION    = 15.75167779
ECCENTRICITY   = .00015158
INCLINATION    = 97.2857
RA_OF_ASC_NODE = 119.0719
ARG_OF_PERICENTER = 73.8762
MEAN_ANOMALY   = 60.0012

EPHEMERIS_TYPE = 0
CLASSIFICATION_TYPE = U
NORAD_CAT_ID   = 67611
ELEMENT_SET_NO = 999
REV_AT_EPOCH   = 498
BSTAR          = -.17415557E-3
MEAN_MOTION_DOT = -.26003E-3
MEAN_MOTION_DDOT = 0

CCSDS_OMM_VERS = 2.0
CREATION_DATE  = 
ORIGINATOR     = 

OBJECT_NAME    = STARLINK-36407
OBJECT_ID      = 2026-018Z
CENTER_NAME    = EARTH
REF_FRAME      = TEME
TIME_SYSTEM    = UTC
MEAN_ELEMENT_THEORY = SGP/SGP4

EPOCH          = 2026-02-22T17:06:20.676384
MEAN_MOTION    = 15.75318784
ECCENTRICITY   = .00022791
INCLINATION    = 97.2841
RA_OF_ASC_NODE = 118.8361
ARG_OF_PERICENTER = 146.3899
MEAN_ANOMALY   = 213.7512

EPHEMERIS_TYPE = 0
CLASSIFICATION_TYPE = U
NORAD_CAT_ID   = 67612
ELEMENT_SET_NO = 999
REV_AT_EPOCH   = 500
BSTAR          = .23543277E-2
MEAN_MOTION_DOT = .368673E-2
MEAN_MOTION_DDOT = 0

CCSDS_OMM_VERS = 2.0
CREATION_DATE  = 
ORIGINATOR     = 

OBJECT_NAME    = STARLINK-36597
OBJECT_ID      = 2026-018AA
CENTER_NAME    = EARTH
REF_FRAME      = TEME
TIME_SYSTEM    = UTC
MEAN_ELEMENT_THEORY = SGP/SGP4

EPOCH          = 2026-02-22T19:43:35.433696
MEAN_MOTION    = 15.80934688
ECCENTRICITY   = .00011097
INCLINATION    = 97.2861
RA_OF_ASC_NODE = 118.9909
ARG_OF_PERICENTER = 91.1623
MEAN_ANOMALY   = 268.9773

EPHEMERIS_TYPE = 0
CLASSIFICATION_TYPE = U
NORAD_CAT_ID   = 67613
ELEMENT_SET_NO = 999
REV_AT_EPOCH   = 497
BSTAR          = .10468041E-2
MEAN_MOTION_DOT = .206298E-2
MEAN_MOTION_DDOT = 0

CCSDS_OMM_VERS = 2.0
CREATION_DATE  = 
ORIGINATOR     = 

OBJECT_NAME    = NEONSAT-1A
OBJECT_ID      = 2026-019A
CENTER_NAME    = EARTH
REF_FRAME      = TEME
TIME_SYSTEM    = UTC
MEAN_ELEMENT_THEORY = SGP/SGP4

EPOCH          = 2026-02-22T21:55:02.746272
MEAN_MOTION    = 15.07657625
ECCENTRICITY   = .00125089
INCLINATION    = 97.4097
RA_OF_ASC_NODE = 178.0210
ARG_OF_PERICENTER = 220.1396
MEAN_ANOMALY   = 139.8909

EPHEMERIS_TYPE = 0
CLASSIFICATION_TYPE = U
NORAD_CAT_ID   = 67614
ELEMENT_SET_NO = 999
REV_AT_EPOCH   = 359
BSTAR          = .25636084E-3
MEAN_MOTION_DOT = .3853E-4
MEAN_MOTION_DDOT = 0

CCSDS_OMM_VERS = 2.0
CREATION_DATE  = 
ORIGINATOR     = 

OBJECT_NAME    = ELECTRON KICK STAGE R/B
OBJECT_ID      = 2026-019C
CENTER_NAME    = EARTH
REF_FRAME      = TEME
TIME_SYSTEM    = UTC
MEAN_ELEMENT_THEORY = SGP/SGP4

EPOCH          = 2026-02-22T07:00:34.791840
MEAN_MOTION    = 15.70627314
ECCENTRICITY   = .01551148
INCLINATION    = 97.4018
RA_OF_ASC_NODE = 179.3043
ARG_OF_PERICENTER = 178.0552
MEAN_ANOMALY   = 182.1349

EPHEMERIS_TYPE = 0
CLASSIFICATION_TYPE = U
NORAD_CAT_ID   = 67616
ELEMENT_SET_NO = 999
REV_AT_EPOCH   = 362
BSTAR          = .20274474E-2
MEAN_MOTION_DOT = .515548E-2
MEAN_MOTION_DDOT = .83451744E-4

CCSDS_OMM_VERS = 2.0
CREATION_DATE  = 
ORIGINATOR     = 

OBJECT_NAME    = STARLINK-36548
OBJECT_ID      = 2026-020A
CENTER_NAME    = EARTH
REF_FRAME      = TEME
TIME_SYSTEM    = UTC
MEAN_ELEMENT_THEORY = SGP/SGP4

EPOCH          = 2026-02-22T19:00:35.927136
MEAN_MOTION    = 15.76498679
ECCENTRICITY   = .00018872
INCLINATION    = 43.0000
RA_OF_ASC_NODE = 232.8236
ARG_OF_PERICENTER = 163.3699
MEAN_ANOMALY   = 196.7233

EPHEMERIS_TYPE = 0
CLASSIFICATION_TYPE = U
NORAD_CAT_ID   = 67617
ELEMENT_SET_NO = 999
REV_AT_EPOCH   = 373
BSTAR          = .24087398E-2
MEAN_MOTION_DOT = .41394E-2
MEAN_MOTION_DDOT = 0

CCSDS_OMM_VERS = 2.0
CREATION_DATE  = 
ORIGINATOR     = 

OBJECT_NAME    = STARLINK-36601
OBJECT_ID      = 2026-020B
CENTER_NAME    = EARTH
REF_FRAME      = TEME
TIME_SYSTEM    = UTC
MEAN_ELEMENT_THEORY = SGP/SGP4

EPOCH          = 2026-02-22T22:00:01.999584
MEAN_MOTION    = 15.76332734
ECCENTRICITY   = .00012509
INCLINATION    = 42.9996
RA_OF_ASC_NODE = 231.4487
ARG_OF_PERICENTER = 274.0003
MEAN_ANOMALY   = 322.8177

EPHEMERIS_TYPE = 0
CLASSIFICATION_TYPE = U
NORAD_CAT_ID   = 67618
ELEMENT_SET_NO = 999
REV_AT_EPOCH   = 501
BSTAR          = .58796815E-3
MEAN_MOTION_DOT = .96205E-3
MEAN_MOTION_DDOT = 0

CCSDS_OMM_VERS = 2.0
CREATION_DATE  = 
ORIGINATOR     = 

OBJECT_NAME    = STARLINK-36119
OBJECT_ID      = 2026-020C
CENTER_NAME    = EARTH
REF_FRAME      = TEME
TIME_SYSTEM    = UTC
MEAN_ELEMENT_THEORY = SGP/SGP4

EPOCH          = 2026-02-22T20:28:41.287296
MEAN_MOTION    = 15.76401836
ECCENTRICITY   = .00015298
INCLINATION    = 42.9979
RA_OF_ASC_NODE = 232.4229
ARG_OF_PERICENTER = 284.7619
MEAN_ANOMALY   = 75.3081

EPHEMERIS_TYPE = 0
CLASSIFICATION_TYPE = U
NORAD_CAT_ID   = 67619
ELEMENT_SET_NO = 999
REV_AT_EPOCH   = 374
BSTAR          = .52002529E-3
MEAN_MOTION_DOT = .85182E-3
MEAN_MOTION_DDOT = 0

CCSDS_OMM_VERS = 2.0
CREATION_DATE  = 
ORIGINATOR     = 

OBJECT_NAME    = STARLINK-36607
OBJECT_ID      = 2026-020D
CENTER_NAME    = EARTH
REF_FRAME      = TEME
TIME_SYSTEM    = UTC
MEAN_ELEMENT_THEORY = SGP/SGP4

EPOCH          = 2026-02-22T22:00:01.999584
MEAN_MOTION    = 15.76300950
ECCENTRICITY   = .00016285
INCLINATION    = 42.9996
RA_OF_ASC_NODE = 231.6041
ARG_OF_PERICENTER = 279.7530
MEAN_ANOMALY   = 254.9205

EPHEMERIS_TYPE = 0
CLASSIFICATION_TYPE = U
NORAD_CAT_ID   = 67620
ELEMENT_SET_NO = 999
REV_AT_EPOCH   = 501
BSTAR          = .54772278E-3
MEAN_MOTION_DOT = .8939E-3
MEAN_MOTION_DDOT = 0

CCSDS_OMM_VERS = 2.0
CREATION_DATE  = 
ORIGINATOR     = 

OBJECT_NAME    = STARLINK-36615
OBJECT_ID      = 2026-020E
CENTER_NAME    = EARTH
REF_FRAME      = TEME
TIME_SYSTEM    = UTC
MEAN_ELEMENT_THEORY = SGP/SGP4

EPOCH          = 2026-02-22T13:19:25.247712
MEAN_MOTION    = 15.82316502
ECCENTRICITY   = .0002359
INCLINATION    = 42.9981
RA_OF_ASC_NODE = 233.5997
ARG_OF_PERICENTER = 241.4231
MEAN_ANOMALY   = 118.6403

EPHEMERIS_TYPE = 0
CLASSIFICATION_TYPE = U
NORAD_CAT_ID   = 67621
ELEMENT_SET_NO = 999
REV_AT_EPOCH   = 370
BSTAR          = .21865E-2
MEAN_MOTION_DOT = .493998E-2
MEAN_MOTION_DDOT = 0

CCSDS_OMM_VERS = 2.0
CREATION_DATE  = 
ORIGINATOR     = 

OBJECT_NAME    = STARLINK-36614
OBJECT_ID      = 2026-020F
CENTER_NAME    = EARTH
REF_FRAME      = TEME
TIME_SYSTEM    = UTC
MEAN_ELEMENT_THEORY = SGP/SGP4

EPOCH          = 2026-02-22T20:22:22.304064
MEAN_MOTION    = 15.76463187
ECCENTRICITY   = .00025838
INCLINATION    = 42.9988
RA_OF_ASC_NODE = 232.3866
ARG_OF_PERICENTER = 287.6022
MEAN_ANOMALY   = 72.4565

EPHEMERIS_TYPE = 0
CLASSIFICATION_TYPE = U
NORAD_CAT_ID   = 67622
ELEMENT_SET_NO = 999
REV_AT_EPOCH   = 374
BSTAR          = .83607831E-3
MEAN_MOTION_DOT = .13851E-2
MEAN_MOTION_DDOT = 0

CCSDS_OMM_VERS = 2.0
CREATION_DATE  = 
ORIGINATOR     = 

OBJECT_NAME    = STARLINK-36600
OBJECT_ID      = 2026-020G
CENTER_NAME    = EARTH
REF_FRAME      = TEME
TIME_SYSTEM    = UTC
MEAN_ELEMENT_THEORY = SGP/SGP4

EPOCH          = 2026-02-22T20:25:31.531296
MEAN_MOTION    = 15.76457498
ECCENTRICITY   = .00023171
INCLINATION    = 42.9976
RA_OF_ASC_NODE = 232.4045
ARG_OF_PERICENTER = 273.3166
MEAN_ANOMALY   = 86.7439

EPHEMERIS_TYPE = 0
CLASSIFICATION_TYPE = U
NORAD_CAT_ID   = 67623
ELEMENT_SET_NO = 999
REV_AT_EPOCH   = 374
BSTAR          = .59656645E-3
MEAN_MOTION_DOT = .98192E-3
MEAN_MOTION_DDOT = 0

