STARLINK-36636          
1 67611U 26018Y   26053.91668981 -.00026003  00000+0 -17416-3 0  9996
2 67611  97.2857 119.0719 0001515  73.8762  60.0012 15.75167779  4989
STARLINK-36407          
1 67612U 26018Z   26053.71273931  .00368673  00000+0  23543-2 0  9999
2 67612  97.2841 118.8361 0002279 146.3899 213.7512 15.75318784  5008
STARLINK-36597          
1 67613U 26018AA  26053.82193789  .00206298  00000+0  10468-2 0  9990
2 67613  97.2861 118.9909 0001109  91.1623 268.9773 15.80934688  4972
NEONSAT-1A              
1 67614U 26019A   26053.91322623  .00003853  00000+0  25636-3 0  9999
2 67614  97.4097 178.0210 0012508 220.1396 139.8909 15.07657625  3590
ELECTRON KICK STAGE R/B 
1 67616U 26019C   26053.29206935  .00515548  83452-4  20274-2 0  9997
2 67616  97.4018 179.3043 0155114 178.0552 182.1349 15.70627314  3624
STARLINK-36548          
1 67617U 26020A   26053.79208249  .00413940  00000+0  24087-2 0  9997
2 67617  43.0000 232.8236 0001887 163.3699 196.7233 15.76498679  3739
STARLINK-36601          
1 67618U 26020B   26053.91668981  .00096205  00000+0  58797-3 0  9992
2 67618  42.9996 231.4487 0001250 274.0003 322.8177 15.76332734  5019
STARLINK-36119          
1 67619U 26020C   26053.85325564  .00085182  00000+0  52003-3 0  9999
2 67619  42.9979 232.4229 0001529 284.7619  75.3081 15.76401836  3748
STARLINK-36607          
1 67620U 26020D   26053.91668981  .00089390  00000+0  54772-3 0  9991
2 67620  42.9996 231.6041 0001628 279.7530 254.9205 15.76300950  5018
STARLINK-36615          
1 67621U 26020E   26053.55515333  .00493998  00000+0  21865-2 0  9993
2 67621  42.9981 233.5997 0002359 241.4231 118.6403 15.82316502  3707
STARLINK-36614          
1 67622U 26020F   26053.84886926  .00138510  00000+0  83608-3 0  9995
2 67622  42.9988 232.3866 0002583 287.6022  72.4565 15.76463187  3741
STARLINK-36600          
1 67623U 26020G   26053.85105939  .00098192  00000+0  59657-3 0  9993
2 67623  42.9976 232.4045 0002317 273.3166  86.7439 15.76457498  3741
